[
    {
        "Altitude(m)": 605470.7370713003,
        "Argument of Periapsis(deg)": 0.0,
        "Eccentricity": 0.0,
        "Inclination(deg)": 60.0,
        "Latitude(deg)": 27.988034297154634,
        "Longitude(deg)": -57.73708319918009,
        "Mean Anomaly(deg)": -212.7273,
        "RAAN(deg)": 240.0,
        "Satellite Name": "Test1 1065",
        "Satellite Number": 1065,
        "Semi-Major Axis(m)": 6980739.136638005,
        "Time(s)": 0
    },
    {
        "Altitude(m)": 605395.7757147199,
        "Argument of Periapsis(deg)": 0.00010418945913296404,
        "Eccentricity": 0.0,
        "Inclination(deg)": 60.0,
        "Latitude(deg)": 27.473725335639234,
        "Longitude(deg)": -57.38389531383636,
        "Mean Anomaly(deg)": -212.10719385453817,
        "RAAN(deg)": 239.99957995086024,
        "Satellite Name": "Test1 1065",
        "Satellite Number": 1065,
        "Semi-Major Axis(m)": 6980739.136638005,
        "Time(s)": 10
    }
]